"nid","Street","Postalcode","City","Latitude","Longitude","type","Betaling","Bemanding","Kanylebeholder","Puslebord","Vandhane","FriGulvplads","Body","Term","Billeder"
"340","Amager Strandpark - Kilometerbroen","2300","København S","55.658322","12.642967","Handicap","Ved ikke","Ved ikke","Ved ikke","Ved ikke","Ved ikke","","Placering: Park
Åbningstider: 8.00-22.00 hele ugen 15.maj til 31. august
Resten af året hele ugen 8.00-18.00","København",""
"339","Amager Strandpark - Strandpromenaden nord","2300","København S","55.654530","12.649340","Handicap","Ved ikke","Ved ikke","Ved ikke","Ved ikke","Ved ikke","","Placering: Park
Åbningstider: 8.00-22.00 hele ugen 15.maj til 31. august
Resten af året hele ugen 8.00-18.00","København",""
"338","Amager Strandpark - Strandpromenaden syd","2300","København S","55.648422","12.647289","Handicap","Ved ikke","Ved ikke","Ved ikke","Ved ikke","Ved ikke","","Placering: Park
Åbningstider: 8.00-22.00 hele ugen 15.maj til 31. august
Resten af året hele ugen 8.00-18.00","København",""
"341","Amager Strandpark - Øresundsstien / Strandstien","2300","København S","55.663012","12.638636","Handicap","Ved ikke","Ved ikke","Ved ikke","Ved ikke","Ved ikke","","Placering: Park
Åbningstider: 8.00-22.00 hele ugen 15.maj til 31. august
Resten af året hele ugen 8.00-18.00","København",""
"335","Amager Strandvej 125 v. Italiensvej","2300","København S","55.657597","12.636567","Handicap","Ved ikke","Ved ikke","Ved ikke","Ved ikke","Ved ikke","","Placering: Park
Åbningstider: 8.00-22.00 hele ugen 15.maj til 31. august
Resten af året hele ugen 8.00-18.00","København",""
"336","Amager Strandvej 175 v. Svend Vonveds Vej","2300","København S","55.651242","12.640629","Handicap","Ved ikke","Ved ikke","Ved ikke","Ved ikke","Ved ikke","","Placering: Park
Åbningstider: 8.00-22.00 hele ugen 15.maj til 31. august
Resten af året hele ugen 8.00-18.00","København",""
"334","Amager Strandvej 55 v. Øresundsvej","2300","København S","55.662019","12.632405","Handicap","Ved ikke","Ved ikke","Ved ikke","Ved ikke","Ved ikke","","Placering: Park
Åbningstider: 8.00-22.00 hele ugen 15.maj til 31. august
Resten af året hele ugen 8.00-18.00","København",""
"198","Baldersgade 60, Balders Plads","2200","København N","55.701310","12.548328","Handicap","Nej","Ved ikke","Ved ikke","Ved ikke","Ved ikke","","Placering: Park
Åbningstider: 9.00-22.00 alle dage
Åbningsperiode: ?","København",""
"347","Bispebjerg Kirkegård","2400","København NV","55.714253","12.531011","Handicap","Ved ikke","Ved ikke","Ved ikke","Ved ikke","Ved ikke","","Placering: Kirkegård
Åbningstider: April til september 8.00-20.00 oktober til marts 9.00-19.00","København",""
"384","Blågårds Plads","2200","København N","55.686436","12.556422","Handicap","Nej","Nej","Ved ikke","Ved ikke","Ved ikke","","Placering: ?
Åbningstider: ?
Åbningsperiode: ?","København",""
"298","Borgergade 1F","1300","København K","55.682099","12.583712","Handicap","Nej","Nej","Ja","Ja","Ja","","Placering: Gade
Åbningstider: Aldrig lukket
Danfo toiletenhed","København","sites/default/files/images/1/2016/02/streetviewborgergade1f.jpgsites/default/files/images/1/2016/02/borgergade1ny.jpgsites/default/files/images/1/2016/02/borgergade2ny.jpgsites/default/files/images/1/2016/02/borgergade3.jpg"
"345","Brønshøj Kirkevej / Brønshøj kirkegård","2700","Brønshøj","55.705752","12.498597","Handicap","Ved ikke","Ved ikke","Ved ikke","Ved ikke","Ved ikke","","Placering: Kirkegård
Åbningstider: April til september 8.00-16.00 oktober til marts 9.00-16.00","København",""
"44","Brønshøj Torv, Krabbeholmvej of. nr 3","2700","Brønshøj","55.704191","12.498832","Handicap","Nej","Nej","Ja","Ja","Ja","","Placering: Gade
Åbningstider: Aldrig lukket
Danfo toiletenhed","København",""
"350","Bølgen - Kalvebod Brygge 3B","1560","København V","55.669141","12.575980","Handicap","Ved ikke","Ved ikke","Ved ikke","Ved ikke","Ved ikke","","Placering: ?
Åbningstider: 9.00-22.00 alle dage
Åbningsperiode: ?","København",""
"131","Christianhavns Torv, Torvegade 48","1410","København K","55.671992","12.591804","Handicap","Nej","Nej","Ja","Ja","Ja","","Placering: Gade
Åbningstider: Aldrig lukket
Danfo toiletenhed","København","sites/default/files/images/3/2012/09/christianhavnstorv2.jpgsites/default/files/images/3/2012/09/christianhavnstorvny.jpgsites/default/files/images/3/2012/09/christianshavnstorv1.jpg"
"168","Damhusdæmningen v. kiosk","2720","Vanløse","55.681570","12.473101","Handicap","Nej","Nej","Ved ikke","Ved ikke","Ved ikke","","Placering: Park
Åbningstider: 9.00-22.00 alle dage
Åbningsperiode: 1. april til 30. september","København",""
"191","Edel Sauntes Alle 18-20 ( Det røde toilet)","2100","København Ø","55.700706","12.565388","Handicap","Nej","Ved ikke","Ved ikke","Ved ikke","Ved ikke","","Placering: Park
Åbningstider: 9.00-22.00 alle dage
Åbningsperiode: 1. april til 30. september","København",""
"45","Emdrup Torv, Emdrupvej 169","2400","København NV","55.723012","12.529522","Handicap","Nej","Nej","Ja","Ja","Ja","","Placering: Gade
Åbningstider: Aldrig lukket
Danfo toiletenhed","København",""
"68","Enghave plads, Enghave plads 27","1670","København V","55.667137","12.545621","Handicap","Nej","Nej","Ja","Ja","Ja","","Placering: Gade
Åbningstider: aldrig lukket
Danfo toiletenhed","København",""
"179","Enghaveparken","1670","København V","55.667806","12.541118","Handicap","Ved ikke","Nej","Ved ikke","Ved ikke","Ved ikke","","Placering: Park
Åbningstider: 9.00-22.00 alle dage
Åbningsperiode: 1. april til 30. september","København",""
"326","Enghaveparken","1670","København V","55.667912","12.541712","Handicap","Ved ikke","Nej","Ved ikke","Ved ikke","Ved ikke","","Placering: ?
Bemandet legeplads
Åbningstider: Mandag - Torsdag 9.30-17.00 - Fredag 10.00-17.00 - Lørdag og søndag lukket.
Åbningsperiode: ?","København",""
"206","Engsvinget 46","2400","København NV","55.716732","12.514343","Handicap","Nej","Nej","Ved ikke","Ved ikke","Ved ikke","","Placering: Park
Åbningstider: 9.00-22.00 alle dage
Åbningsperiode: 1. april til 30. september","København",""
"66","Gråbrødre Torv, ud for Kejsergade 2","1155","København K","55.679984","12.575451","Handicap","Nej","Nej","Ja","Ja","Ja","","Placering: Gade
Åbningstider: Aldrig lukket
Danfo toiletenhed","København","sites/default/files/images/3/2011/03/biggraabroedretorv.jpg"
"343","Gunløgsgade (ved legepladsen)","2300","København S","55.664694","12.579486","Handicap","Ved ikke","Ved ikke","Ved ikke","Ved ikke","Ved ikke","","Placering: ?
Åbningstider: 9.00-22.00 alle dage
Åbningsperiode: 1. april til 30. september","København",""
"67","Halmtorvet, Halmtorvet nr 12 A","1700","København V","55.670548","12.561251","Handicap","Nej","Nej","Ja","Ja","Ja","","Placering: Gade
Åbningstider: Aldrig lukket
De automatiske toiletter på Halmtorvet og Sdr. Boulevard aflåses fra ca. kl. 19 til kl. 9 om morgenen.
Danfo toiletenhed","København","sites/default/files/images/3/2011/04/halmtorvet2ny.jpg"
"42","Hans Knudsens Plads, Lyngbyvej 90","2100","København Ø","55.712948","12.560245","Handicap","Nej","Nej","Ja","Ja","Ja","","Placering: Gade
Åbningstider: Aldrig lukket
Danfo toiletenhed","København",""
"275","Hans Tavsens Park","2200","København N","55.688641","12.548019","Handicap","Nej","Ved ikke","Ved ikke","Ved ikke","Ved ikke","","Placering: Park
Åbningstider: Hele ugen 9.00 - 22.00
Åbningsperiode: 1. april til 30. september","København",""
"47","Havnegade, Havnegade of. nr 27","1058","København K","55.676341","12.588465","Handicap","Nej","Nej","Ja","Ja","Ja","","Placering: Gade
Åbningstider: Aldrig lukket
Danfo toiletenhed","København",""
"46","Husum torv, Frederiksundsvej 329","2700","Brønshøj","55.711708","12.471724","Handicap","Nej","Nej","Ja","Ja","Ja","","Placering: Gade
Åbningstider: Aldrig lukket","København",""
"211","Hyrdevangen 1","2700","Brønshøj","55.707311","12.510325","Handicap","Ved ikke","Ved ikke","Ved ikke","Ved ikke","Ved ikke","","Placering: ?
Åbningstider: ?
Åbningsperiode: ?","København",""
"188","Islands Brygge 12, Havneparken","2300","København S","55.668399","12.578484","Handicap","Ved ikke","Ved ikke","Ved ikke","Ved ikke","Ved ikke","","Åbningstider:
Åbent fra 1. april til 30. september
9.00-22.00 alle dage","København",""
"189","Islands Brygge 18, Kulturhuset","2300","København S","55.667120","12.576250","Handicap","Ved ikke","Ved ikke","Ved ikke","Ved ikke","Ved ikke","","Placering: Kommunal institution
Åbningstider: 8.00-23.00 alle dage","København",""
"139","Kapelvej /Assistens Kgd, V","2200","København N","55.689449","12.553019","Handicap","Nej","Nej","Ja","Ja","Ja","","Placering: Park, Inde på Kirkegården.
Åbningstider: Hele ugen - April til september 7.00-22.00, oktober til marts 9.00-19.00
Åbent i kirkegårdstiden","København",""
"182","Kastrup Fort, Kasemat nord","2300","København S","55.650343","12.637748","Handicap","Ved ikke","Ved ikke","Ved ikke","Ved ikke","Ved ikke","","Placering: Park
Åbningstider: 9.00-22.00 alle dage
Åbningsperiode: 1. april til 30. september","København",""
"140","Kultorvet 9B","1175","København K","55.682291","12.573859","Handicap","Nej","Nej","Ja","Ja","Ja","","Placering: Gade
Åbningstider: Aldrig lukket
Danfo toiletenhed","København","sites/default/files/images/3/2013/04/kultorvet3ny_0.jpgsites/default/files/images/3/2013/04/kultorvet2ny_0.jpg"
"169","Langelinie v østlige ende af bro","2100","København Ø","55.694604","12.594692","Handicap","Ved ikke","Ved ikke","Ved ikke","Ved ikke","Ved ikke","","Placering: Park
Åbningstider: 9.00-22.00 alle dage
Åbningsperiode: 1. april til 30. september","København",""
"329","Langelinie v. Hvidtfeldtmonumentet","2100","København Ø","55.690616","12.599197","Handicap","Ved ikke","Ved ikke","Ved ikke","Ved ikke","Ved ikke","","Placering: Park
Åbningstider: 9.00-22.00 alle dage
Åbningsperiode: 1. april til 30. september","København",""
"184","Lergravsparken","2300","København S","55.661741","12.617156","Handicap","Ved ikke","Ved ikke","Ved ikke","Ved ikke","Ved ikke","","Placering: Park
Åbningstider: 9.00-22.00 alle dage
Åbningsperiode: ?","København",""
"209","Lersøparken","2400","København NV","55.709717","12.542855","Handicap","Nej","Nej","Ved ikke","Ved ikke","Ved ikke","","Placering: Park
Åbningstider: 9.00-22.00 alle dage
Åbningsperiode: 1. april til 30. september","København",""
"49","Melchiors Plads ud for nr. 8","2100","København Ø","55.703550","12.585572","Handicap","Nej","Nej","Ja","Ja","Ja","","Placering: Gade
Åbningstider: Aldrig lukket","København",""
"59","Mozarts Plads, Mozarts Plads 1A","2450","København SV","55.648710","12.534678","Handicap","Nej","Nej","Ja","Ja","Ja","","Placering: Gade
Åbningstider: aldrig lukket
Danfo toiletenhed","København",""
"170","Nordre Toldbod 16","1259","København K","55.690076","12.599540","Handicap","Ved ikke","Ved ikke","Ved ikke","Ved ikke","Ved ikke","","Placering: ?
Åbningstider: ?
Åbningsperiode: ?","København",""
"12","Nyhavn 1F, underjordisk","1051","København K","55.680573","12.587758","Handicap","Nej","Ja","Ja","Ja","Ja","","Placering: Gade - Underjordisk toilet - Dametoilet til højre og Herretoilet til venstre for Canal Tours
Åbningstider: 9.00-22.30 alle dage
Den 24., 25. og 26. december er åbningstiden 8-16.
Den 31. december er der lukket på alle toiletterne.
Den 1. januar er åbningstiden 10-18.
TEST af HTML
Kontakt: tinem@email.dk
TEST af hyperlinks http://tinemuller.dk/gis-afdelinger/
TEST af rød tekst
Test af rød tekst","København","sites/default/files/images/3/2011/02/2013-12-16132220.jpgsites/default/files/images/3/2011/02/foto12.jpgsites/default/files/images/3/2011/02/2013-12-16132105.jpgsites/default/files/images/3/2011/02/2013-12-16131827.jpgsites/default/files/images/3/2011/02/2013-12-16131639.jpgsites/default/files/images/3/2011/02/bignyhavn.jpgsites/default/files/images/3/2011/02/foto13.jpgsites/default/files/images/3/2011/02/foto14.jpg"
"212","Nørre Voldgade 15A Nørreport station","1358","København K","55.683170","12.571438","Handicap","Nej","Ja","Ja","Ja","Ja","","Placering: Gade
Åbningstider: 9.00-22.00 alle dage
Den 24., 25. og 26. december er åbningstiden 8-16.
Den 31. december er der lukket på alle toiletterne.
Den 1. januar er åbningstiden 10-18.
6 unisex toiletter
1 handicap toilet med egen indgang
1 pissoir med egen indgang","København","sites/default/files/images/3/2015/01/image2.jpegsites/default/files/images/3/2015/01/image5.jpegsites/default/files/images/3/2015/01/image4.jpegsites/default/files/images/3/2015/01/image3.jpegsites/default/files/images/3/2015/01/image1.jpeg"
"195","P H Lings Allé 5","2100","København Ø","55.703159","12.570673","Handicap","Ved ikke","Ved ikke","Ved ikke","Ved ikke","Ved ikke","","Placering: Park
Åbningstider: 9.00-22.00 alle dage
Åbningsperiode: 1. april til 30. september","København",""
"187","Parmagade 45, Filipsparken","2300","København S","55.653986","12.618588","Handicap","Ved ikke","Ved ikke","Ved ikke","Ved ikke","Ved ikke","","Placering: Park
Åbningstider: 9.00-22.00 alle dage
Åbningsperiode: 1. april til 30. september","København",""
"205","Pilesvinget 80","2700","Brønshøj","55.708825","12.486400","Handicap","Nej","Nej","Ved ikke","Ved ikke","Ved ikke","","Placering: Park
Åbningstider: 9.00-22.00 alle dage
Åbningsperiode: ?","København",""
"196","Ryvangens Naturpark","2900","Hellerup","55.722010","12.563557","Handicap","Nej","Nej","Ved ikke","Ved ikke","Ved ikke","","Placering: Park
Åbningstider: 9.00-22.00 alle dage
Åbningsperiode: 1. april til 30. september","København","sites/default/files/images/3/2014/04/rymarksvej75.jpg"
"185","Rødegårdsparken","2300","København S","55.661051","12.611136","Handicap","Ved ikke","Ved ikke","Ved ikke","Ved ikke","Ved ikke","","Placering: Park
Åbningstider: 9.00-22.00 alle dage
Åbningsperiode: 1. april til 30. september","København",""
"130","Rådhuspladsen - skurvogn","1550","København V","55.676197","12.568498","Handicap","Nej","Ja","Ja","Ja","Ja","","Placering: Gade
Åbningstider:
9.00-22.30 alle dage
Den 24., 25. og 26. december er åbningstiden 8-16.
Den 31. december er der lukket på alle toiletterne.
Den 1. januar er åbningstiden 10-18.","København","sites/default/files/images/3/2012/09/bigraadhuspladsen2_0.jpgsites/default/files/images/3/2012/09/radhuspladsenunisex2ny.jpgsites/default/files/images/3/2012/09/radhuspladsenbemandetunisexny.jpgsites/default/files/images/3/2012/09/2014-07-29154755.jpgsites/default/files/images/3/2012/09/2014-07-29154902.jpg"
"60","Sankt Hans Torv, Nørre Allé 2","2200","København N","55.691370","12.561250","Handicap","Nej","Nej","Ja","Ja","Ja","","Placering: Gade
Åbningstider: Aldrig lukket
Danfo toiletenhed","København",""
"190","Serridsslevsvej 35, Seridsslevvej nord","2100","København Ø","55.706806","12.571253","Handicap","Ved ikke","Nej","Ved ikke","Ved ikke","Ved ikke","","Placering: Park
Åbningstider: 9.00-22.00 alle dage
Åbningsperiode: ?","København",""
"210","Solkrogen 8","2700","Brønshøj","55.703182","12.509605","Handicap","Ved ikke","Ved ikke","Ved ikke","Ved ikke","Ved ikke","","Placering: ?
Åbningstider: ?
Åbningsperiode: ?","København",""
"199","Stefansgade 24, Nørrebroparken","2200","København N","55.694865","12.542849","Handicap","Nej","Nej","Ved ikke","Ved ikke","Ved ikke","","Placering: Park
Åbningstider: 9.00-22.00 alle dage
Åbningsperiode: ?","København",""
"346","Sundby Kirkegård, Kastrupvej 55, i Kapel","2300","København S","55.656695","12.618216","Handicap","Ved ikke","Ved ikke","Ved ikke","Ved ikke","Ved ikke","","Placering: Kirkegård
Åbningstider: 10.00-16.00 alle dage
Åbningsperiode: ?","København",""
"61","Sundbyvester Plads 2A","2300","København K","55.646622","12.613326","Handicap","Nej","Nej","Ja","Ja","Ja","","Placering: Gade
Åbningstider: Aldrig lukket
Danfo toiletenhed","København",""
"186","Sundbyvesterparken v. legeplads","2300","København S","55.650650","12.602138","Handicap","Ved ikke","Ved ikke","Ved ikke","Ved ikke","Ved ikke","","Placering: Park
Åbningstider: 9.00-22.00 alle dage
Åbningsperiode: 1. april til 30. september","København",""
"62","Sundbyøster Plads, Amagerbrogade 185","2300","København S","55.651841","12.612123","Handicap","Nej","Nej","Ja","Ja","Ja","","Placering: Gade
Åbningstider: Aldrig lukket
Danfo toiletenhed","København",""
"331","Svanemølle Strandpark","2100","København Ø","55.719539","12.583029","Handicap","Ved ikke","Ved ikke","Ved ikke","Ved ikke","Ved ikke","","Placering: ?
Åbningstider: 9.00-22.00 alle dage
Åbningsperiode: 1. april til 30. september","København",""
"63","Sønder Boulevard, Sønder Boulevard of. nr 60","1720","København V","55.666095","12.551496","Handicap","Nej","Nej","Ja","Ja","Ja","","Placering: Gade
Åbningstider: Aldrig lukket
De automatiske toiletter på Halmtorvet og Sdr. Boulevard aflåses fra ca. kl. 19 til kl. 9 om morgenen.
Danfo toiletenhed","København","sites/default/files/images/3/2011/03/sonderboulevardofnr603ny.jpgsites/default/files/images/3/2011/03/sonderboulevardofnr602ny.jpgsites/default/files/images/3/2011/03/sonderboulevardofnr60ny.jpg"
"183","Søstjernen Amager Strandvej 11","2300","København S","55.666373","12.632197","Handicap","Ved ikke","Ved ikke","Ved ikke","Ved ikke","Ved ikke","","Placering: Park
Åbningstider: 9.00-22.00 alle dage
Åbningsperiode: 1. april til 30. september","København",""
"56","Toftegårds Plads ud for nr. 2","2500","Valby","55.661840","12.517536","Handicap","Nej","Nej","Ja","Ja","Ja","","Placering: Gade
Åbningstider: Aldrig lukket
Danfo toiletenhed","København",""
"135","Trianglen 1","2100","København Ø","55.699301","12.577521","Handicap","Nej","Ja","Ja","Ja","Ja","","Placering: Gade
Åbningstider: 9-18.30
Åbningsperiode: ?
Den 24., 25. og 26. december er åbningstiden 8-16.
Den 31. december er der lukket på alle toiletterne.
Den 1. januar er åbningstiden 10-18.","København","sites/default/files/images/3/2013/04/bemandettoilettrianglen3.jpgsites/default/files/images/3/2013/04/bemandettoilettrianglen2.jpgsites/default/files/images/3/2013/04/bemandettoilettrianglen.jpg"
"51","Valby Tingsted, Valby Langgade of. nr 66","2500","Valby","55.666027","12.514116","Handicap","Nej","Nej","Ja","Ja","Ja","","Placering: Gade
Åbningstider: Aldrig lukket
Danfo toiletenhed","København",""
"178","Valbypark v restaurant","2450","København SV","55.641763","12.520163","Handicap","Ved ikke","Nej","Ved ikke","Ved ikke","Ved ikke","","Placering: Park
Åbningstider: 9.00-22.00 alle dage
Åbningsperiode: 1. april til 30. september","København",""
"177","Valbypark v Rosenhaven","2450","København SV","55.641899","12.520460","Handicap","Ved ikke","Nej","Ved ikke","Ved ikke","Ved ikke","","Placering: Park
Åbningstider: 9.00-22.00 alle dage
Åbningsperiode: 1. april til 30. september","København",""
"70","Ved Stranden, Ved Stranden of. 18 A","1061","København K","55.677576","12.580907","Handicap","Nej","Nej","Ja","Ja","Ja","","Placering: Gade
Åbningstider: Aldrig lukket
Danfo toiletenhed","København","sites/default/files/images/3/2011/04/2014-07-29163237.jpgsites/default/files/images/3/2011/04/2014-07-29163339.jpgsites/default/files/images/3/2011/04/2014-07-29163517.jpg"
"299","Vester Søgade, overfor Planetariet","1610","København V","55.674807","12.558971","Handicap","Nej","Nej","Ved ikke","Ved ikke","Ved ikke","","Placering: Gade
Åbningstider: Aldrig lukket","København",""
"180","Vigerslevparken, v. Engdraget","2500","Valby","55.669723","12.480273","Handicap","Ved ikke","Ved ikke","Ved ikke","Ved ikke","Ved ikke","","Placering: Park
Åbningstider: 9.00-22.00 alle dage
Åbningsperiode: 1. april til 30. september","København",""
"69","Ørestadsparken, Ørestads Boulevard 68","2300","København S","55.633288","12.579978","Handicap","Nej","Nej","Ja","Ja","Ja","","Placering: Park
Åbningstider: Aldrig lukket
Åbningsperiode: ?
Danfo toiletenhed","København",""
"171","Ørstedsparken, Nørre Farimagsgade","1364","København K","55.680387","12.564560","Handicap","Ved ikke","Ved ikke","Ved ikke","Ved ikke","Ved ikke","","Placering: Park
Åbningstider: 9.00-22.00 alle dage
Åbningsperiode: ?","København",""
"193","Øster Allé 37 z, v.  Dansepladsen","2100","København Ø","55.704773","12.565444","Handicap","Nej","Nej","Ved ikke","Ved ikke","Ved ikke","","Placering: Park
Åbningstider: 9.00-22.00 alle dage
Åbningsperiode: 1. april til 30. september","København",""
"324","Øster Allé 37 z, v. ""Dansepladsen""","2100","København Ø","55.704773","12.565444","Handicap","Nej","Ved ikke","Ved ikke","Ved ikke","Ved ikke","","Placering: Park
Åbningstider: 9.00-22.00 alle dage
Åbningsperiode: 1. april til 30. september","København",""
"194","Øster Allé 9 z, Sansehaven","2100","København Ø","55.699950","12.573372","Handicap","Ved ikke","Ved ikke","Ved ikke","Ved ikke","Ved ikke","","Placering: Park
Åbningstider: 9.00-22.00 alle dage
Åbningsperiode: 1. april til 30. september","København",""
"173","Østre Anlæg, Stockholmsgade v. Oslo Plads","2100","København Ø","55.692469","12.584244","Handicap","Ved ikke","Ved ikke","Ved ikke","Ved ikke","Ved ikke","","Placering: Park
Åbningstider: 9.00-22.00 alle dage
Åbningsperiode: 1. april til 30. september","København",""
"50","Ålekistevej, Ålekistevej 167","2720","Vanløse","55.691461","12.480697","Handicap","Nej","Nej","Ja","Ja","Ja","","Placering: Gade
Åbningstider: Aldrig lukket
Danfo toiletenhed","København",""
"38","Blågårds Plads nr. 3","2200","København N","55.686093","12.557037","Pissoir","Nej","Nej","Nej","Nej","Nej","","Placering: Gade
Åbningstider: Aldrig lukket
Støbejernspissoir","København",""
"300","Flæsketorvet 63","1715","København V","55.667512","12.560923","Pissoir","Nej","Nej","Ved ikke","Ved ikke","Ved ikke","","Placering: Gade
Åbningstider: Aldrig lukket
Andre pissoirs","København",""
"71","Istedgade 20, Maria Kirkeplads","1650","København V","55.671690","12.560541","Pissoir","Nej","Nej","Nej","Nej","Nej","","Placering: Gade
Åbningstider: Aldrig lukket
Andre pissoirs","København",""
"52","Korsgade 58","2200","København N","55.686647","12.553934","Pissoir","Nej","Nej","Nej","Nej","Nej","","Placering: Gade
Åbningstider: Aldrig lukket
Støbejernspissoir","København",""
"142","Mozarts Plads, Mozarts Plads udf. Nr. 2","2450","København SV","55.648945","12.533585","Pissoir","Nej","Nej","Nej","Nej","Nej","","Placering: Gade
Åbningstider: Aldrig lukket
Andre pissoirs","København",""
"55","Nikolaj Plads 10","1067","København K","55.679010","12.581870","Pissoir","Nej","Nej","Nej","Nej","Nej","","Placering: Gade
Åbningstider: Aldrig lukket
Støbejernspissoir","København","sites/default/files/images/3/2011/03/nikolajplads.jpg"
"29","Nyhavn over for nr. 24","1051","København K","55.679549","12.591002","Pissoir","Nej","Nej","Nej","Nej","Nej","","Placering: Gade
Åbningstider: Aldrig lukket
Andre pissoirs","København","sites/default/files/images/3/2011/03/2013-10-11161115.jpg"
"7","Nyhavn, over for nr. 47","1051","København K","55.679813","12.591223","Pissoir","Nej","Nej","Nej","Nej","Nej","","Placering: Gade
Åbningstider: Aldrig lukket
Andre pissoirs","København","sites/default/files/images/3/2010/12/2013-10-11161244.jpg"
"58","Nytorv, ud for nr. 27","1450","København K","55.677490","12.572660","Pissoir","Nej","Nej","Nej","Nej","Nej","","Placering: Gade
Åbningstider: Aldrig lukket
Støbejernspissoir","København","sites/default/files/images/3/2011/03/nytorv2.jpgsites/default/files/images/3/2011/03/nytorv1ny.jpgsites/default/files/images/3/2011/03/2014-07-29160704.jpg"
"54","Sølvtorvet, Stockholmsgade/Sølvgade","2100","København Ø","55.689418","12.575475","Pissoir","Nej","Nej","Nej","Nej","Nej","","Placering: Gade
Åbningstider: Aldrig lukket
Støbejernspissoir","København",""
"53","Toftegårds Plads ud for nr. 6","2500","Valby","55.662306","12.517405","Pissoir","Nej","Nej","Nej","Nej","Nej","","Placering: Gade
Åbningstider: Aldrig lukket
Støbejernspissoir","København",""
"35","Utterslev Torv Nr. 9","2400","København NV","55.710055","12.516928","Pissoir","Nej","Nej","Nej","Nej","Nej","","Placering: Gade
Åbningstider: Aldrig lukket
Andre pissoirs","København",""
"332","Vesterbro, Saxoparken","1662","København K","55.669960","12.551496","Pissoir","Ved ikke","Ved ikke","Ved ikke","Ved ikke","Ved ikke","","Placering: Park
Åbningstider: Aldrig lukket
Støbejernspissoir","København",""
"337","Amager Strandvej, Femøren","2300","København S","55.646201","12.644020","Unisex","Ved ikke","Ved ikke","Ved ikke","Ved ikke","Ved ikke","","Placering: Park
Åbningstider: 8.00-22.00 hele ugen 15.maj til 31. august
Resten af året hele ugen 8.00-18.00","København",""
"34","Amagertorv 1F","1160","København K","55.678826","12.579556","Unisex","Nej","Ja","Ja","Ja","Ja","","Placering: Gade
Åbningstider: 9.00-22.30 alle dage
Den 24., 25. og 26. december er åbningstiden 8-16.
Den 31. december er der lukket på alle toiletterne.
Den 1. januar er åbningstiden 10-18.
Underjordisk toilet - Dametoilet til højre og Herretoilet til venstre","København","sites/default/files/images/3/2011/03/2014-07-29162056.jpgsites/default/files/images/3/2011/03/2014-07-29162315.jpgsites/default/files/images/3/2011/03/foto8.jpgsites/default/files/images/3/2011/03/foto9.jpgsites/default/files/images/3/2011/03/foto11.jpgsites/default/files/images/3/2011/03/foto10.jpg"
"213","Axeltorv v/Cirkusbygningen","1609","København V","55.675858","12.564604","Unisex","Nej","Nej","Nej","Nej","Nej","","Placering: Gade
Åbningstider: Aldrig lukket
Reklamesøjle m. toilet","København","sites/default/files/images/1/2015/07/2014-07-29152754.jpgsites/default/files/images/1/2015/07/2014-07-29153001.jpgsites/default/files/images/1/2015/07/2014-07-29153100.jpg"
"348","Bispeengen","2200","København Ø","55.695527","12.536173","Unisex","Ved ikke","Ved ikke","Ved ikke","Ved ikke","Ved ikke","","Placering: ?
Bemandet legeplads
Åbningstider: Mandag - Torsdag 9.30-17.00 - Fredag 10.00-17.00 - Lørdag og søndag lukket.
Åbningsperiode: ?","København",""
"349","Bredegrund","2300","København S","55.659015","12.613490","Unisex","Ved ikke","Ved ikke","Ved ikke","Ved ikke","Ved ikke","","Placering: ?
Bemandet legeplads
Åbningstider: Mandag - Torsdag 9.30-17.00 - Fredag 10.00-17.00 - Lørdag og søndag lukket.
Åbningsperiode: ?","København",""
"207","Bystævnet v Vestvolden","2700","Brønshøj","55.716927","12.479076","Unisex","Ved ikke","Ved ikke","Ved ikke","Ved ikke","Ved ikke","","Placering: Park
Åbningstider: 9.00-22.00 alle dage
Åbningsperiode: 1. april til 30. september","København",""
"5","Christiansborg Slotsplads, Holmensbro","1218","København K","55.676600","12.582200","Unisex","Nej","Nej","Nej","Nej","Nej","","Placering: Gade
Åbningstider: Aldrig lukket
Reklamesøjle m. toilet","København",""
"174","Christianshavns Vold, Elefantens Bastion","1424","København K","55.670008","12.592640","Unisex","Ved ikke","Ved ikke","Ved ikke","Ved ikke","Ved ikke","","Placering: ?
Bemandet legeplads
Åbningstider: 9.00-22.00 alle dage
Åbningsperiode: ?","København",""
"201","Damhusdæmningen 14 Engen","2720","Vanløse","55.682449","12.468016","Unisex","Nej","Nej","Ved ikke","Ved ikke","Ved ikke","","Placering: Park
Åbningstider: 9.00-22.00 alle dage
Åbningsperiode: 1. april til 30. september","København",""
"325","Edel Sauntes Allé 1 (Bikuben )","2100","København Ø","55.698973","12.562361","Unisex","Nej","Ved ikke","Ved ikke","Ved ikke","Ved ikke","","Placering: Park
Åbningstider: 9.00-22.00 alle dage
Åbningsperiode: 1. april til 30. september","København",""
"192","Edel Sauntes Allé 5 (Skateparken)","2100","København Ø","55.699421","12.563885","Unisex","Nej","Ved ikke","Ved ikke","Ved ikke","Ved ikke","","Placering: Park
Åbningstider: ?
Åbningsperiode: 1. april til 30. september","København",""
"351","Fillipsparken","2300","København S","55.654049","12.618546","Unisex","Ved ikke","Ved ikke","Ved ikke","Ved ikke","Ved ikke","","Placering: ?
Bemandet legeplads
Åbningstider: Mandag - Torsdag 9.30-17.00 - Fredag 10.00-17.00 - Lørdag og søndag lukket.
Åbningsperiode: ?","København",""
"36","Gammel Torv ud for nr. 22","1457","København K","55.678112","12.571727","Unisex","Nej","Nej","Nej","Nej","Ja","","Placering: Gade
Åbningstider: Aldrig lukket
Reklamesøjle m. toilet","København","sites/default/files/images/3/2011/03/2014-07-29160226.jpgsites/default/files/images/3/2011/03/2014-07-29160359.jpgsites/default/files/images/3/2011/03/2014-07-29160439.jpg"
"200","Hans Tavsens Park, vest","2200","København N","55.689757","12.545727","Unisex","Ved ikke","Ved ikke","Ved ikke","Ved ikke","Ved ikke","","Placering: Park, Bemandet legeplads
Åbningstider: Mandag - Torsdag 9.30-17.00 - Fredag 10.00-17.00 - Lørdag og søndag lukket.
Åbningsperiode: ?","København",""
"274","Hans Tavsens Park, øst","2200","København N","55.688329","12.549780","Unisex","Ved ikke","Ved ikke","Ved ikke","Ved ikke","Ved ikke","","Placering: Kirkegård, Bemandet legeplads
Åbningstider: Mandag - Torsdag 9.30-17.00 - Fredag 10.00-17.00 - Lørdag og søndag lukket.
Åbningsperiode: ?","København",""
"355","Husumparken","1306","København K","55.704234","12.470960","Unisex","Ved ikke","Ved ikke","Ved ikke","Ved ikke","Ved ikke","","Placering: ?
Bemandet legeplads
Åbningstider: Mandag - Torsdag 9.30-17.00 - Fredag 10.00-17.00 - Lørdag og søndag lukket.
Åbningsperiode: ?","København",""
"132","Islands Brygge over for nr. 37","2300","København S","55.665192","12.574250","Unisex","Nej","Nej","Nej","Nej","Ja","","Placering: Gade
Åbningstider: Aldrig lukket
Reklamesøjle m. toilet","København",""
"31","Israels Plads, Frederiksborggade 21","1360","København K","55.684300","12.569500","Unisex","Nej","Ja","Ja","Ja","Ja","","Placering: Gade
Åbningstider: Hele ugen åben 8.00-22.00
Den 24., 25. og 26. december er åbningstiden 8-16.
Den 31. december er der lukket på alle toiletterne.
Den 1. januar er åbningstiden 10-18.","København","sites/default/files/images/3/2011/03/bemandettoiletisraelsplads3.jpgsites/default/files/images/3/2011/03/bemandettoiletisraelsplads2.jpgsites/default/files/images/3/2011/03/bemandettoiletisraelsplads1.jpg"
"202","Kagsvang 31, Kagsmosen","2700","Brønshøj","55.710130","12.457969","Unisex","Ved ikke","Ved ikke","Ved ikke","Ved ikke","Ved ikke","","Placering: Park
Åbningstider: 9.00-22.00 alle dage
Åbningsperiode: ?","København",""
"356","Kildevældsparken","2100","København Ø","55.714445","12.565102","Unisex","Ved ikke","Ved ikke","Ved ikke","Ved ikke","Ved ikke","","Placering: ?
Bemandet legeplads
Åbningstider: Mandag - Torsdag 9.30-17.00 - Fredag 10.00-17.00 - Lørdag og søndag lukket.
Åbningsperiode: ?","København",""
"165","Kødbyen, Halmtorvet 9C","1700","København V","55.670053","12.561735","Unisex","Nej","Nej","Ja","Nej","Ja","","Placering: Andet?
Åbningstider: Det er åbent døgnet rundt hele året.
Dette toilet er lavet udfra behovet fra misbrugerne i området - det er småt og absolut ikke handicapvenligt.
Yderligere fotos samt video af CPH Urban Toilet - http://www.uiwe.dk/old/cph-urban-toilet/","København","sites/default/files/images/3/2014/01/pe0987-1024x682.jpgsites/default/files/images/3/2014/01/cph-urban-toilet-front-narrow-977x1024.jpgsites/default/files/images/3/2014/01/pe1319-1024x682.jpgsites/default/files/images/3/2014/01/pe1389-1024x682.jpg"
"330","Langeliniekaj 63 (yderst på langeliniekajen)","2100","København Ø","55.703656","12.600802","Unisex","Ved ikke","Ved ikke","Ved ikke","Ved ikke","Ved ikke","","Placering: Park
Åbningstider: 9.00-22.00 alle dage
Åbningsperiode: 1. april til 30. september","København",""
"352","Lergravsparken","2300","København S","55.662526","12.618609","Unisex","Ved ikke","Ved ikke","Ved ikke","Ved ikke","Ved ikke","","Placering: ?
Bemandet legeplads
Åbningstider: Mandag - Torsdag 9.30-17.00 - Fredag 10.00-17.00 - Lørdag og søndag lukket.
Åbningsperiode: ?","København",""
"133","Metrostation Bella Center, Ørestads Boulevard 39","2300","København S","55.638528","12.583093","Unisex","Nej","Nej","Nej","Nej","Nej","","Placering: Gade
Åbningstider: Aldrig lukket
Reklamesøjle m. toilet","København","sites/default/files/images/3/2013/03/oerestadsboulevard39.jpg"
"203","Moseskellet 47","2400","København NV","55.722051","12.522914","Unisex","Ved ikke","Ved ikke","Ved ikke","Ved ikke","Ved ikke","","Placering: Park
Åbningstider: 9.00-22.00 alle dage
Åbningsperiode: ?","København",""
"204","Mosesvinget 1","2400","København NV","55.712993","12.504978","Unisex","Ved ikke","Ved ikke","Ved ikke","Ved ikke","Ved ikke","","Placering: Park
Åbningstider: 9.00-22.00 alle dage
Åbningsperiode: 1. april til 30. september","København",""
"175","Nyboder, Gammel Vagt","1312","København K","55.687614","12.585553","Unisex","Ved ikke","Ved ikke","Ved ikke","Ved ikke","Ved ikke","","Placering: ?
Åbningstider: 9.00-22.00 alle dage
Åbningsperiode: ?","København",""
"357","Nørager Plads","2720","Vanløse","55.696272","12.475026","Unisex","Ved ikke","Ved ikke","Ved ikke","Ved ikke","Ved ikke","","Placering: ?
Bemandet legeplads
Åbningstider: Mandag - Fredag 9.30-17.00 - Lørdag og søndag lukket.
Åbningsperiode: ?","København",""
"358","Nørrebroparken","2200","København S","55.694184","12.541991","Unisex","Ved ikke","Ved ikke","Ved ikke","Ved ikke","Ved ikke","","Placering: ?
Bemandet legeplads
Åbningstider: Mandag - Fredag 9.30-17.00 - Lørdag og søndag lukket.
Åbningsperiode: ?","København",""
"354","Remiseparken, Bondegården","2300","København S","55.652713","12.598081","Unisex","Ved ikke","Ved ikke","Ved ikke","Ved ikke","Ved ikke","","Placering: ?
Bemandet legeplads
Åbningstider: Mandag - Torsdag 9.30-17.00 - Fredag 10.00-17.00 - Lørdag og søndag lukket.
Åbningsperiode: ?","København",""
"353","Remiseparken, Byggeren","2300","København S","55.652669","12.597272","Unisex","Ved ikke","Ved ikke","Ved ikke","Ved ikke","Ved ikke","","Placering: ?
Bemandet legeplads
Åbningstider: Mandag - Torsdag 9.30-17.00 - Fredag 10.00-17.00 - Lørdag og søndag lukket.
Åbningsperiode: ?","København",""
"208","Rødkildeparken","2400","København NV","55.699538","12.511266","Unisex","Ved ikke","Ved ikke","Ved ikke","Ved ikke","Ved ikke","","Placering: Park
Åbningstider: 9.00-22.00 alle dage
Åbningsperiode: 1. april til 30. september","København",""
"323","Serridsslevsvej 15, Seridsslevvej syd","2100","København Ø","55.705954","12.572823","Unisex","Nej","Ved ikke","Ved ikke","Ved ikke","Ved ikke","","Placering: Park
Åbningstider: 9.00-22.00 alle dage
Åbningsperiode: 1. april til 30. september","København",""
"359","Skydebanehaven","1658","København V","55.670445","12.554053","Unisex","Ved ikke","Ved ikke","Ved ikke","Ved ikke","Ved ikke","","Placering: ?
Bemandet legeplads
Åbningstider: Mandag - Torsdag 9.30-17.00 - Fredag 10.00-17.00 - Lørdag og søndag lukket.
Åbningsperiode: ?","København",""
"214","Stengade 48","2200","København N","55.687063","12.554900","Unisex","Nej","Nej","Ja","Nej","Ja","","Placering: ?
Åbningstider: Aldrig lukket
Åbningsperiode: ?
Yderligere fotos samt video af CPH Urban Toilet - http://www.uiwe.dk/old/cph-urban-toilet/","København","sites/default/files/images/1/2015/07/img0646.jpgsites/default/files/images/1/2015/07/img0647.jpgsites/default/files/images/3/2015/07/pe1319-1024x682.jpgsites/default/files/images/3/2015/07/pe1389-1024x682.jpg"
"344","Trafiklegepladsen","2100","København Ø","55.704867","12.570897","Unisex","Ved ikke","Ved ikke","Ved ikke","Ved ikke","Ved ikke","","Placering: ?
Åbningstider: Mandag - Torsdag 9.30-17.00 - Fredag 10.00-17.00 - Lørdag og søndag lukket.
Åbningsperiode: ?","København",""
"333","Valbyparken","2450","København SV","55.644710","12.519857","Unisex","Ved ikke","Ved ikke","Ved ikke","Ved ikke","Ved ikke","","Placering: ?
Åbningstider: ?
Åbningsperiode: ?","København",""
"39","Vesterbros Torv, Vesterbrogade 47F","1620","København V","55.672220","12.555460","Unisex","Nej","Ja","Ja","Ja","Ja","","Placering: Gade
Åbningstider: 10.30-17.30 mandag-fredag, lukket lørdag-søndag (kun åbent ved større arrangementer)
Den 24., 25. og 26. december er åbningstiden 8-16.
Den 31. december er der lukket på alle toiletterne.
Den 1. januar er åbningstiden 10-18.
Underjordisk toilet - Dametoilet til højre og Herretoilet til venstre","København","sites/default/files/images/3/2011/03/07-08-201312-27-43_0.jpgsites/default/files/images/3/2011/03/foto.jpgsites/default/files/images/3/2011/03/foto2.jpgsites/default/files/images/3/2011/03/58033310151710622550774856209872n.jpgsites/default/files/images/3/2011/03/922733101517106224907741306341850n.jpgsites/default/files/images/3/2011/03/vtdamesidenedgang.jpgsites/default/files/images/3/2011/03/foto3.jpg"
"328","Vestre Kirkegård sydlig del, ved Østre Kapel","2500","Valby","55.654184","12.533564","Unisex","Nej","Nej","Ved ikke","Ved ikke","Ved ikke","","Placering: Kirkegård
Åbningstider: April til september 7.00-21.00 oktober til marts 9.00-19.00
Muligvis lukket / under ombygning","København",""
"327","Vestre Kirkegård, Hovedindgang Vestre Kirkegårds Allé","2500","Valby","55.662010","12.530759","Unisex","Nej","Nej","Ved ikke","Ved ikke","Ved ikke","","Placering: Kirkegård
Åbningstider: April til september 7.00-21.00 oktober til marts 9.00-19.00","København",""
"181","Vigerslevvej 346","2500","Valby","55.646122","12.495449","Unisex","Ved ikke","Nej","Ved ikke","Ved ikke","Ved ikke","","Placering: Park
Åbningstider: 9.00-22.00 alle dage
Åbningsperiode: 1. april til 30. september","København",""
"65","Vor Frue Plads ud for Dyrkøb 1","1166","København K","55.679306","12.573532","Unisex","Nej","Nej","Nej","Nej","Ja","","Placering: Gade
Åbningstider: Aldrig lukket
Reklamesøjle m. toilet","København","sites/default/files/images/3/2011/03/vorfrueplads.jpgsites/default/files/images/3/2011/03/2014-07-16174201.jpgsites/default/files/images/3/2011/03/2014-07-16174251.jpg"
"360","Wesselsgade","2200","København N","55.685969","12.559995","Unisex","Ved ikke","Ved ikke","Ved ikke","Ved ikke","Ved ikke","","Placering: ?
Bemandet legeplads
Åbningstider: Mandag - Torsdag 9.30-17.00 - Fredag 10.00-17.00 - Lørdag og søndag lukket.
Åbningsperiode: ?","København",""
"342","Ørstedsparken","1364","København K","55.680491","12.564608","Unisex","Ved ikke","Ved ikke","Ved ikke","Ved ikke","Ved ikke","","Placering: ?
Bemandet legeplads
Åbningstider: Mandag - Fredag 9.30-17.00 Lørdag og søndag lukket.
Åbningsperiode: ?","København",""
"172","Ørstedsparken, Ahlefeldtsgade (minicaféen)","1364","København K","55.682474","12.566183","Unisex","Ved ikke","Ved ikke","Ved ikke","Ved ikke","Ved ikke","","Placering: Park
Åbningstider:10.00-? alle dage
Åbningsperiode: 1. april til 30. september - Følger caféens åbningstider som skifter med vejret","København",""
"176","Østre Anlæg, Østre Anlæg legeplads","2100","København Ø","55.690613","12.579121","Unisex","Ved ikke","Ved ikke","Ved ikke","Ved ikke","Ved ikke","","Placering: ?
Åbningstider: 9.00-22.00 alle dage
Åbningsperiode: ?","København",""
"37","Ålholm Plads, Ålholm plads of. nr 1","2500","Valby","55.672384","12.489110","Unisex","Nej","Nej","Nej","Nej","Nej","","Placering: Gade
Åbningstider: Aldrig lukket
Reklamesøjle m. toilet","København",""
